GOES 1 (SMS-C)          
1 08366U 75100A   26062.15947694 -.00000006  00000+0  00000+0 0  9992
2 08366   4.8778 278.7648 0005429 359.6940 179.3831  1.00237171184004
GOES 2                  
1 10061U 77048A   26061.95708707 -.00000294  00000+0  00000+0 0  9996
2 10061   6.6726 294.2305 0013885  47.5368 283.6982  0.99398073 45218
GOES 3                  
1 10953U 78062A   26061.65245995 -.00000252  00000+0  00000+0 0  9999
2 10953   7.1427 300.0597 0002864 354.3803 265.0381  0.99365793127478
GOES 4                  
1 11964U 80074A   26062.07769318 -.00000257  00000+0  00000+0 0  9990
2 11964   8.2151 303.7405 0032082 103.0066  94.6550  0.99231573126381
GOES 5                  
1 12472U 81049A   26062.06011326 -.00000207  00000+0  00000+0 0  9991
2 12472   9.5483 316.3507 0004672 336.7410 161.0314  1.00211760121788
GOES 6                  
1 14050U 83041A   26062.07475449 -.00000082  00000+0  00000+0 0  9991
2 14050  10.3595 321.9086 0002362 306.4337 170.1894  1.00217649214954
GOES 7                  
1 17561U 87022A   26061.34835931  .00000062  00000+0  00000+0 0  9996
2 17561  13.0226 338.3886 0003936  14.4711 162.2775  0.99894055125898
GOES 8                  
1 23051U 94022A   26062.12180675 -.00000227  00000+0  00000+0 0  9994
2 23051  14.3393  14.4798 0004973  14.0409 350.5100  0.98908038123083
GOES 9                  
1 23581U 95025A   26060.29183885 -.00000159  00000+0  00000+0 0  9992
2 23581  13.8669  15.3357 0003713 211.3457 333.8383  0.98799667111695
GOES 10                 
1 24786U 97019A   26061.83864139 -.00000136  00000+0  00000+0 0  9999
2 24786  13.0022  21.8585 0031290 239.1480 304.0616  0.99122632105019
GOES 11                 
1 26352U 00022A   26061.85954840 -.00000149  00000+0  00000+0 0  9993
2 26352  11.5769  47.4587 0005954 254.3169  99.1899  0.99041398 51416
GOES 12                 
1 26871U 01031A   26060.79399304 -.00000244  00000+0  00000+0 0  9996
2 26871  11.9899  38.1650 0008765 295.5256  62.6562  0.99138222 89691
EWS-G1 (GOES 13)        
1 29155U 06018A   26062.13801351  .00000019  00000+0  00000+0 0  9993
2 29155   4.2577  77.7180 0061993 272.9219 115.5818  0.98784711 42201
GOES 14                 
1 35491U 09033A   26062.12744012  .00000114  00000+0  00000+0 0  9998
2 35491   1.4156  84.4389 0002190 295.8945  28.9504  1.00123619  5524
EWS-G2 (GOES 15)        
1 36411U 10008A   26062.09987998  .00000006  00000+0  00000+0 0  9993
2 36411   1.0058  85.1718 0001668  23.7748 151.3712  1.00269225 58575
GOES 16                 
1 41866U 16071A   26062.15392248 -.00000106  00000+0  00000+0 0  9996
2 41866   0.1441  90.2185 0002599 216.3842 165.0243  1.00271628 34042
GOES 17                 
1 43226U 18022A   26062.14836481 -.00000198  00000+0  00000+0 0  9998
2 43226   0.6649  87.5818 0002322 219.7732 177.4660  1.00270443 29363
